[{"OBJECT_NAME":"TIANMU-1 10","OBJECT_ID":"2023-101D","EPOCH":"2026-03-03T22:37:40.899936","MEAN_MOTION":15.29220834,"ECCENTRICITY":0.00069272,"INCLINATION":97.2761,"RA_OF_ASC_NODE":116.2137,"ARG_OF_PERICENTER":149.1425,"MEAN_ANOMALY":211.0224,"EPHEMERIS_TYPE":0,"CLASSIFICATION_TYPE":"U","NORAD_CAT_ID":57402,"ELEMENT_SET_NO":999,"REV_AT_EPOCH":14555,"BSTAR":0.00038118074,"MEAN_MOTION_DOT":0.00010746,"MEAN_MOTION_DDOT":0},{"OBJECT_NAME":"FENGYUN 3F","OBJECT_ID":"2023-111A","EPOCH":"2026-03-03T23:31:30.564768","MEAN_MOTION":14.19917971,"ECCENTRICITY":0.00013326,"INCLINATION":98.6939,"RA_OF_ASC_NODE":134.9108,"ARG_OF_PERICENTER":82.3577,"MEAN_ANOMALY":277.7751,"EPHEMERIS_TYPE":0,"CLASSIFICATION_TYPE":"U","NORAD_CAT_ID":57490,"ELEMENT_SET_NO":999,"REV_AT_EPOCH":13393,"BSTAR":7.6429366e-5,"MEAN_MOTION_DOT":1.19e-6,"MEAN_MOTION_DDOT":0},{"OBJECT_NAME":"ARKTIKA-M 2","OBJECT_ID":"2023-198A","EPOCH":"2026-03-03T01:58:58.035360","MEAN_MOTION":2.00614888,"ECCENTRICITY":0.68769635,"INCLINATION":63.2203,"RA_OF_ASC_NODE":166.1216,"ARG_OF_PERICENTER":267.7841,"MEAN_ANOMALY":18.8417,"EPHEMERIS_TYPE":0,"CLASSIFICATION_TYPE":"U","NORAD_CAT_ID":58584,"ELEMENT_SET_NO":999,"REV_AT_EPOCH":1619,"BSTAR":0,"MEAN_MOTION_DOT":1.37e-6,"MEAN_MOTION_DDOT":0},{"OBJECT_NAME":"TIANMU-1 11","OBJECT_ID":"2023-205A","EPOCH":"2026-03-03T23:16:03.147168","MEAN_MOTION":15.2578587,"ECCENTRICITY":0.00096556,"INCLINATION":97.3545,"RA_OF_ASC_NODE":86.2131,"ARG_OF_PERICENTER":27.6789,"MEAN_ANOMALY":332.4961,"EPHEMERIS_TYPE":0,"CLASSIFICATION_TYPE":"U","NORAD_CAT_ID":58645,"ELEMENT_SET_NO":999,"REV_AT_EPOCH":12147,"BSTAR":0.00032984847,"MEAN_MOTION_DOT":8.368e-5,"MEAN_MOTION_DDOT":0},{"OBJECT_NAME":"TIANMU-1 12","OBJECT_ID":"2023-205B","EPOCH":"2026-03-04T00:02:20.247072","MEAN_MOTION":15.25711021,"ECCENTRICITY":0.00074654,"INCLINATION":97.3534,"RA_OF_ASC_NODE":86.025,"ARG_OF_PERICENTER":14.2438,"MEAN_ANOMALY":345.901,"EPHEMERIS_TYPE":0,"CLASSIFICATION_TYPE":"U","NORAD_CAT_ID":58646,"ELEMENT_SET_NO":999,"REV_AT_EPOCH":12146,"BSTAR":0.00038987968,"MEAN_MOTION_DOT":9.878e-5,"MEAN_MOTION_DDOT":0},{"OBJECT_NAME":"TIANMU-1 13","OBJECT_ID":"2023-205C","EPOCH":"2026-03-03T23:12:39.305376","MEAN_MOTION":15.25758255,"ECCENTRICITY":0.00070982,"INCLINATION":97.3561,"RA_OF_ASC_NODE":86.2274,"ARG_OF_PERICENTER":355.4107,"MEAN_ANOMALY":4.7065,"EPHEMERIS_TYPE":0,"CLASSIFICATION_TYPE":"U","NORAD_CAT_ID":58647,"ELEMENT_SET_NO":999,"REV_AT_EPOCH":12145,"BSTAR":0.00035162651,"MEAN_MOTION_DOT":8.913e-5,"MEAN_MOTION_DDOT":0},{"OBJECT_NAME":"TIANMU-1 14","OBJECT_ID":"2023-205D","EPOCH":"2026-03-04T00:24:45.158112","MEAN_MOTION":15.25736968,"ECCENTRICITY":0.0008009,"INCLINATION":97.3496,"RA_OF_ASC_NODE":85.5506,"ARG_OF_PERICENTER":358.3609,"MEAN_ANOMALY":1.7602,"EPHEMERIS_TYPE":0,"CLASSIFICATION_TYPE":"U","NORAD_CAT_ID":58648,"ELEMENT_SET_NO":999,"REV_AT_EPOCH":12146,"BSTAR":0.00037249484,"MEAN_MOTION_DOT":9.442e-5,"MEAN_MOTION_DDOT":0},{"OBJECT_NAME":"TIANMU-1 19","OBJECT_ID":"2023-208A","EPOCH":"2026-03-03T21:47:52.520064","MEAN_MOTION":15.29685535,"ECCENTRICITY":0.00043338,"INCLINATION":97.4388,"RA_OF_ASC_NODE":178.8901,"ARG_OF_PERICENTER":342.1115,"MEAN_ANOMALY":17.9972,"EPHEMERIS_TYPE":0,"CLASSIFICATION_TYPE":"U","NORAD_CAT_ID":58660,"ELEMENT_SET_NO":999,"REV_AT_EPOCH":12122,"BSTAR":0.00047955639,"MEAN_MOTION_DOT":0.0001373,"MEAN_MOTION_DDOT":0},{"OBJECT_NAME":"TIANMU-1 20","OBJECT_ID":"2023-208B","EPOCH":"2026-03-03T23:05:52.498752","MEAN_MOTION":15.30876141,"ECCENTRICITY":0.00066411,"INCLINATION":97.4327,"RA_OF_ASC_NODE":179.4723,"ARG_OF_PERICENTER":347.6442,"MEAN_ANOMALY":12.4635,"EPHEMERIS_TYPE":0,"CLASSIFICATION_TYPE":"U","NORAD_CAT_ID":58661,"ELEMENT_SET_NO":999,"REV_AT_EPOCH":12131,"BSTAR":0.00045905659,"MEAN_MOTION_DOT":0.00013637,"MEAN_MOTION_DDOT":0},{"OBJECT_NAME":"TIANMU-1 21","OBJECT_ID":"2023-208C","EPOCH":"2026-03-03T23:14:29.577696","MEAN_MOTION":15.32864078,"ECCENTRICITY":0.00063893,"INCLINATION":97.4381,"RA_OF_ASC_NODE":181.7312,"ARG_OF_PERICENTER":340.9668,"MEAN_ANOMALY":19.1334,"EPHEMERIS_TYPE":0,"CLASSIFICATION_TYPE":"U","NORAD_CAT_ID":58662,"ELEMENT_SET_NO":999,"REV_AT_EPOCH":12143,"BSTAR":0.00051158928,"MEAN_MOTION_DOT":0.00016185,"MEAN_MOTION_DDOT":0},{"OBJECT_NAME":"TIANMU-1 22","OBJECT_ID":"2023-208D","EPOCH":"2026-03-03T22:11:13.170336","MEAN_MOTION":15.29312996,"ECCENTRICITY":0.00035857,"INCLINATION":97.4383,"RA_OF_ASC_NODE":178.9213,"ARG_OF_PERICENTER":14.5975,"MEAN_ANOMALY":345.5368,"EPHEMERIS_TYPE":0,"CLASSIFICATION_TYPE":"U","NORAD_CAT_ID":58663,"ELEMENT_SET_NO":999,"REV_AT_EPOCH":12123,"BSTAR":0.0004678947,"MEAN_MOTION_DOT":0.0001324,"MEAN_MOTION_DDOT":0},{"OBJECT_NAME":"TIANMU-1 15","OBJECT_ID":"2024-004A","EPOCH":"2026-03-03T22:47:04.837056","MEAN_MOTION":15.25730892,"ECCENTRICITY":0.00071569,"INCLINATION":97.466,"RA_OF_ASC_NODE":249.1958,"ARG_OF_PERICENTER":10.1719,"MEAN_ANOMALY":349.9663,"EPHEMERIS_TYPE":0,"CLASSIFICATION_TYPE":"U","NORAD_CAT_ID":58700,"ELEMENT_SET_NO":999,"REV_AT_EPOCH":11972,"BSTAR":0.00036069002,"MEAN_MOTION_DOT":9.135e-5,"MEAN_MOTION_DDOT":0},{"OBJECT_NAME":"TIANMU-1 16","OBJECT_ID":"2024-004B","EPOCH":"2026-03-03T22:23:28.911264","MEAN_MOTION":15.25764802,"ECCENTRICITY":0.00056965,"INCLINATION":97.4602,"RA_OF_ASC_NODE":248.5068,"ARG_OF_PERICENTER":16.0074,"MEAN_ANOMALY":344.1343,"EPHEMERIS_TYPE":0,"CLASSIFICATION_TYPE":"U","NORAD_CAT_ID":58701,"ELEMENT_SET_NO":999,"REV_AT_EPOCH":11972,"BSTAR":0.00040608861,"MEAN_MOTION_DOT":0.00010304,"MEAN_MOTION_DDOT":0},{"OBJECT_NAME":"TIANMU-1 17","OBJECT_ID":"2024-004C","EPOCH":"2026-03-03T23:32:40.336224","MEAN_MOTION":15.25802204,"ECCENTRICITY":0.00049251,"INCLINATION":97.4635,"RA_OF_ASC_NODE":249.0057,"ARG_OF_PERICENTER":19.0813,"MEAN_ANOMALY":341.0608,"EPHEMERIS_TYPE":0,"CLASSIFICATION_TYPE":"U","NORAD_CAT_ID":58702,"ELEMENT_SET_NO":999,"REV_AT_EPOCH":11972,"BSTAR":0.00038962285,"MEAN_MOTION_DOT":9.893e-5,"MEAN_MOTION_DDOT":0},{"OBJECT_NAME":"TIANMU-1 18","OBJECT_ID":"2024-004D","EPOCH":"2026-03-03T23:11:02.192640","MEAN_MOTION":15.25751813,"ECCENTRICITY":0.00043393,"INCLINATION":97.4652,"RA_OF_ASC_NODE":249.2012,"ARG_OF_PERICENTER":20.4507,"MEAN_ANOMALY":339.6904,"EPHEMERIS_TYPE":0,"CLASSIFICATION_TYPE":"U","NORAD_CAT_ID":58703,"ELEMENT_SET_NO":999,"REV_AT_EPOCH":11972,"BSTAR":0.00035258441,"MEAN_MOTION_DOT":8.93e-5,"MEAN_MOTION_DDOT":0},{"OBJECT_NAME":"INSAT-3DS","OBJECT_ID":"2024-033A","EPOCH":"2026-03-03T23:01:22.651680","MEAN_MOTION":1.00270331,"ECCENTRICITY":0.00023113,"INCLINATION":0.057,"RA_OF_ASC_NODE":264.5063,"ARG_OF_PERICENTER":92.5566,"MEAN_ANOMALY":232.0549,"EPHEMERIS_TYPE":0,"CLASSIFICATION_TYPE":"U","NORAD_CAT_ID":58990,"ELEMENT_SET_NO":999,"REV_AT_EPOCH":4601,"BSTAR":0,"MEAN_MOTION_DOT":-1.68e-6,"MEAN_MOTION_DDOT":0},{"OBJECT_NAME":"METEOR-M2 4","OBJECT_ID":"2024-039A","EPOCH":"2026-03-03T22:49:59.206944","MEAN_MOTION":14.22416139,"ECCENTRICITY":0.0008067,"INCLINATION":98.6896,"RA_OF_ASC_NODE":23.6403,"ARG_OF_PERICENTER":110.7568,"MEAN_ANOMALY":249.4475,"EPHEMERIS_TYPE":0,"CLASSIFICATION_TYPE":"U","NORAD_CAT_ID":59051,"ELEMENT_SET_NO":999,"REV_AT_EPOCH":10430,"BSTAR":4.6770292e-5,"MEAN_MOTION_DOT":6.1e-7,"MEAN_MOTION_DDOT":0}]
