TIANMU-1 10             
1 57402U 23101D   26062.94283449  .00010746  00000+0  38118-3 0  9995
2 57402  97.2761 116.2137 0006927 149.1425 211.0224 15.29220834145551
FENGYUN 3F              
1 57490U 23111A   26062.98021487  .00000119  00000+0  76429-4 0  9990
2 57490  98.6939 134.9108 0001332  82.3577 277.7751 14.19917971133932
ARKTIKA-M 2             
1 58584U 23198A   26062.08261615  .00000137  00000+0  00000+0 0  9997
2 58584  63.2203 166.1216 6876963 267.7841  18.8417  2.00614888 16194
TIANMU-1 11             
1 58645U 23205A   26062.96948087  .00008368  00000+0  32985-3 0  9991
2 58645  97.3545  86.2131 0009655  27.6789 332.4961 15.25785870121479
TIANMU-1 12             
1 58646U 23205B   26063.00162323  .00009878  00000+0  38988-3 0  9995
2 58646  97.3534  86.0250 0007465  14.2438 345.9010 15.25711021121468
TIANMU-1 13             
1 58647U 23205C   26062.96712159  .00008913  00000+0  35163-3 0  9999
2 58647  97.3561  86.2274 0007098 355.4107   4.7065 15.25758255121451
TIANMU-1 14             
1 58648U 23205D   26063.01718933  .00009442  00000+0  37249-3 0  9998
2 58648  97.3496  85.5506 0008009 358.3609   1.7602 15.25736968121463
TIANMU-1 19             
1 58660U 23208A   26062.90824676  .00013730  00000+0  47956-3 0  9995
2 58660  97.4388 178.8901 0004333 342.1115  17.9972 15.29685535121222
TIANMU-1 20             
1 58661U 23208B   26062.96241318  .00013637  00000+0  45906-3 0  9997
2 58661  97.4327 179.4723 0006641 347.6442  12.4635 15.30876141121315
TIANMU-1 21             
1 58662U 23208C   26062.96839789  .00016185  00000+0  51159-3 0  9991
2 58662  97.4381 181.7312 0006389 340.9668  19.1334 15.32864078121432
TIANMU-1 22             
1 58663U 23208D   26062.92445799  .00013240  00000+0  46789-3 0  9994
2 58663  97.4383 178.9213 0003585  14.5975 345.5368 15.29312996121237
TIANMU-1 15             
1 58700U 24004A   26062.94936154  .00009135  00000+0  36069-3 0  9991
2 58700  97.4660 249.1958 0007156  10.1719 349.9663 15.25730892119722
TIANMU-1 16             
1 58701U 24004B   26062.93297351  .00010304  00000+0  40609-3 0  9995
2 58701  97.4602 248.5068 0005696  16.0074 344.1343 15.25764802119720
TIANMU-1 17             
1 58702U 24004C   26062.98102241  .00009893  00000+0  38962-3 0  9994
2 58702  97.4635 249.0057 0004925  19.0813 341.0608 15.25802204119728
TIANMU-1 18             
1 58703U 24004D   26062.96599760  .00008930  00000+0  35258-3 0  9995
2 58703  97.4652 249.2012 0004339  20.4507 339.6904 15.25751813119727
INSAT-3DS               
1 58990U 24033A   26062.95928995 -.00000168  00000+0  00000+0 0  9999
2 58990   0.0570 264.5063 0002311  92.5566 232.0549  1.00270331 46014
METEOR-M2 4             
1 59051U 24039A   26062.95137971  .00000061  00000+0  46770-4 0  9990
2 59051  98.6896  23.6403 0008067 110.7568 249.4475 14.22416139104301
